     2.100          NAVIGATION                              RINEX VERSION / TYPE
fic2rin                                 10/31/2013 00:17:29 PGM / RUN BY / DATE
                                                            END OF HEADER
12 13 10 30 22  0  0.0  .165191479027D-03  .227373675443D-11  .000000000000D+00
     .480000000000D+02  .406875000000D+02  .380944439294D-08 -.209809760274D+01
     .217184424400D-05  .452725810464D-02  .945106148720D-05  .515373640060D+04
     .338400000000D+06 -.614672899246D-07 -.180224192775D-03  .111758708954D-07
     .986001856855D+00  .211125000000D+03  .330834296416D+00 -.766389066038D-08
     .468233789531D-09  .100000000000D+01  .176400000000D+04  .000000000000D+00
     .240000000000D+01  .000000000000D+00 -.121071934700D-07  .480000000000D+02
     .331206000000D+06  .400000000000D+01
13 13 10 30 22  0  0.0  .647846609354D-04 -.386535248253D-11  .000000000000D+00
     .660000000000D+02  .312500000000D+00  .447625788268D-08  .559312087171D+00
    -.193715095520D-06  .502127571963D-02  .348873436451D-05  .515367972565D+04
     .338400000000D+06  .111758708954D-07 -.202668103033D+01 -.577419996262D-07
     .979670654621D+00  .321875000000D+03  .220070844695D+01 -.831856078716D-08
    -.171792870148D-09  .100000000000D+01  .176400000000D+04  .000000000000D+00
     .240000000000D+01  .000000000000D+00 -.111758708954D-07  .660000000000D+02
     .331206000000D+06  .400000000000D+01
14 13 10 30 22  0  0.0  .211978796870D-03 -.102318153949D-11  .000000000000D+00
     .810000000000D+02 -.184375000000D+01  .471626788006D-08  .821327342186D+00
    -.800937414169D-07  .741426122840D-02  .383704900742D-05  .515356959915D+04
     .338400000000D+06 -.987201929092D-07 -.205706392095D+01  .596046447754D-07
     .972315222478D+00  .314125000000D+03 -.199243125370D+01 -.848678207997D-08
    -.230723896291D-09  .100000000000D+01  .176400000000D+04  .000000000000D+00
     .240000000000D+01  .000000000000D+00 -.884756445885D-08  .810000000000D+02
     .331206000000D+06  .400000000000D+01
15 13 10 30 22  0  0.0 -.144636724144D-03 -.193267624127D-11  .000000000000D+00
     .330000000000D+02  .934375000000D+01  .546487049093D-08  .343259340964D+00
     .473111867905D-06  .574948126450D-02  .259466469288D-05  .515358545876D+04
     .338400000000D+06  .428408384323D-07 -.216219609715D+01  .167638063431D-07
     .938986899911D+00  .313187500000D+03  .171122791311D+00 -.881286709129D-08
    -.145363197818D-09  .100000000000D+01  .176400000000D+04  .000000000000D+00
     .240000000000D+01  .000000000000D+00 -.102445483208D-07  .330000000000D+02
     .331206000000D+06  .400000000000D+01
16 13 10 30 22  0  0.0 -.243149697781D-03  .102318153949D-11  .000000000000D+00
     .560000000000D+02  .368750000000D+02  .383480259206D-08  .201621271771D+01
     .198371708393D-05  .709735101555D-02  .989250838757D-05  .515374072838D+04
     .338400000000D+06 -.204890966415D-07  .182654231368D-01  .782310962677D-07
     .986650658097D+00  .203343750000D+03  .132540161470D+00 -.774675125471D-08
     .415017287136D-09  .100000000000D+01  .176400000000D+04  .000000000000D+00
     .240000000000D+01  .000000000000D+00 -.977888703346D-08  .560000000000D+02
     .331206000000D+06  .400000000000D+01
17 13 10 30 22  0  0.0 -.361348502338D-04 -.363797880709D-11  .000000000000D+00
     .810000000000D+02 -.113750000000D+02  .482448667352D-08  .106282562903D+01
    -.664964318275D-06  .865193305071D-02  .428594648838D-05  .515369388962D+04
     .338400000000D+06 -.931322574615D-07  .105273386568D+01  .651925802231D-07
     .966431891150D+00  .298593750000D+03 -.218576088398D+01 -.847213861287D-08
     .142863093678D-10  .100000000000D+01  .176400000000D+04  .000000000000D+00
     .340000000000D+01  .000000000000D+00 -.107102096081D-07  .810000000000D+02
     .331206000000D+06  .400000000000D+01
18 13 10 30 22  0  0.0  .282247550786D-03  .204636307899D-11  .000000000000D+00
     .210000000000D+02  .850000000000D+02  .516664378288D-08  .259061307570D+01
     .423751771450D-05  .145621651318D-01  .926107168198D-05  .515365087128D+04
     .338400000000D+06  .102445483208D-06  .310237021799D+01 -.176951289177D-06
     .927070759213D+00  .179812500000D+03 -.207246092161D+01 -.815712549130D-08
     .272154193457D-09  .100000000000D+01  .176400000000D+04  .000000000000D+00
     .240000000000D+01  .000000000000D+00 -.111758708954D-07  .210000000000D+02
     .331206000000D+06  .400000000000D+01
19 13 10 30 22  0  0.0 -.415124464780D-03 -.261479726760D-11  .000000000000D+00
     .970000000000D+02 -.196875000000D+02  .492877673191D-08  .202510332145D+00
    -.959262251854D-06  .959754036739D-02  .435300171375D-05  .515374673653D+04
     .338400000000D+06  .135973095894D-06  .110422345746D+01  .126659870148D-06
     .963584888721D+00  .296687500000D+03  .395052561399D+00 -.851606901417D-08
     .285726187357D-11  .100000000000D+01  .176400000000D+04  .000000000000D+00
     .240000000000D+01  .000000000000D+00 -.149011611938D-07  .970000000000D+02
     .331206000000D+06  .400000000000D+01
20 13 10 30 22  0  0.0  .133230350912D-03  .284217094304D-11  .000000000000D+00
     .240000000000D+02  .726875000000D+02  .520021660989D-08  .307426224544D+01
     .375695526600D-05  .572876131628D-02  .102389603853D-04  .515365744209D+04
     .338400000000D+06  .113621354103D-06  .304912294330D+01 -.147148966789D-06
     .927929288780D+00  .161406250000D+03  .128585880589D+01 -.831356057888D-08
     .260367988229D-09  .100000000000D+01  .176400000000D+04  .000000000000D+00
     .240000000000D+01  .000000000000D+00 -.791624188423D-08  .240000000000D+02
     .331206000000D+06  .400000000000D+01
21 13 10 30 22  0  0.0 -.326134730130D-03 -.181898940355D-11  .000000000000D+00
     .830000000000D+02 -.506875000000D+02  .502020911186D-08 -.266929846380D+01
    -.292621552944D-05  .206364041660D-01  .105779618025D-04  .515361648941D+04
     .338400000000D+06  .350177288055D-06  .205607556179D+01 -.165775418282D-06
     .931672366568D+00  .154218750000D+03 -.209452806946D+01 -.802104839458D-08
    -.200365488884D-09  .100000000000D+01  .176400000000D+04  .000000000000D+00
     .240000000000D+01  .000000000000D+00 -.111758708954D-07  .830000000000D+02
     .331206000000D+06  .400000000000D+01
22 13 10 30 22  0  0.0  .192510895431D-03  .216004991671D-11  .000000000000D+00
     .540000000000D+02  .842500000000D+02  .538808157808D-08  .201884037898D+01
     .431388616562D-05  .671532587148D-02  .957772135735D-05  .515364965630D+04
     .338400000000D+06 -.167638063431D-07  .310466670386D+01 -.167638063431D-06
     .924829087415D+00  .176062500000D+03 -.203960181685D+01 -.843570852398D-08
     .331799535068D-09  .100000000000D+01  .176400000000D+04  .000000000000D+00
     .340000000000D+01  .000000000000D+00 -.172294676304D-07  .540000000000D+02
     .331206000000D+06  .400000000000D+01
23 13 10 30 22  0  0.0  .345287844539D-04 -.341060513165D-11  .000000000000D+00
     .350000000000D+02  .136562500000D+02  .513985695282D-08 -.198961133427D+00
     .610947608948D-06  .885692448355D-02  .303424894810D-05  .515363534355D+04
     .338400000000D+06  .763684511185D-07 -.211865338066D+01  .108033418655D-06
     .953951495635D+00  .314718750000D+03 -.281158814333D+01 -.872357765774D-08
    -.126433837905D-09  .100000000000D+01  .176400000000D+04  .000000000000D+00
     .240000000000D+01  .000000000000D+00 -.200234353542D-07  .350000000000D+02
     .331206000000D+06  .400000000000D+01
24 13 10 30 22  0  0.0 -.164909288287D-04 -.682121026330D-12  .000000000000D+00
     .260000000000D+02 -.619375000000D+02  .444768526394D-08 -.724285661794D+00
    -.329129397869D-05  .123443116900D-02  .936537981033D-05  .515365023422D+04
     .338400000000D+06  .670552253723D-07 -.109141095321D+01 -.204890966415D-07
     .958053809050D+00  .200593750000D+03  .965497493189D-01 -.806676458455D-08
    -.411802867528D-09  .100000000000D+01  .176400000000D+04  .000000000000D+00
     .240000000000D+01  .000000000000D+00  .279396772385D-08  .260000000000D+02
     .331206000000D+06  .400000000000D+01
25 13 10 30 22  0  0.0  .162363518029D-03  .341060513165D-11  .000000000000D+00
     .260000000000D+02  .423437500000D+02  .400052378073D-08 -.302944594758D+01
     .221654772758D-05  .274671067018D-02  .973418354988D-05  .515370420265D+04
     .338400000000D+06  .298023223877D-07 -.401964654756D-01  .577419996262D-07
     .974789267109D+00  .199031250000D+03  .698613052861D+00 -.779246744469D-08
     .463233581252D-09  .100000000000D+01  .176400000000D+04  .000000000000D+00
     .240000000000D+01  .000000000000D+00  .558793544769D-08  .260000000000D+02
     .331206000000D+06  .400000000000D+01
26 13 10 30 22  0  0.0  .262394081801D-03 -.102318153949D-10  .000000000000D+00
     .710000000000D+02 -.250000000000D+00  .466483716634D-08 -.195043605583D+00
     .141561031342D-06  .211146147922D-01  .378116965294D-05  .515368006325D+04
     .338400000000D+06 -.173225998878D-06 -.203465020488D+01  .167638063431D-06
     .977101960653D+00  .316000000000D+03  .125409642594D+01 -.871429155665D-08
    -.144291724615D-09  .100000000000D+01  .176400000000D+04  .000000000000D+00
     .240000000000D+01  .000000000000D+00 -.605359673500D-08  .710000000000D+02
     .331206000000D+06  .400000000000D+01
27 13 10 30 22  0  0.0 -.533419661224D-04 -.386535248253D-11  .000000000000D+00
     .860000000000D+02 -.110312500000D+02  .494270588354D-08  .398391312037D+00
    -.644475221634D-06  .463881762698D-03  .431202352047D-05  .515366066933D+04
     .338400000000D+06  .186264514923D-08  .100851292573D+01  .223517417908D-07
     .961094670068D+00  .297062500000D+03  .784600422465D+00 -.841392190219D-08
     .757174396496D-10  .100000000000D+01  .176400000000D+04  .000000000000D+00
     .240000000000D+01  .000000000000D+00  .186264514923D-08  .860000000000D+02
     .331206000000D+06  .400000000000D+01
